#dP2018  6 20  0  0  0.00000000      96 __u+U ITR00 FIT  IAC
## 2006 259200.00000000   900.00000000 58289 0.0000000000000
+   86   C01C02C03C04C05C06C07C08C09C10C11C12C13C14E01E02E03
+        E04E05E07E08E09E11E12E14E18E19E24E26E30G01G02G03G04
+        G05G06G07G08G09G10G11G12G13G14G15G16G17G18G19G20G21
+        G22G23G24G25G26G27G28G29G30G31G32J01R01R02R03R04R05
+        R07R08R09R10R11R13R14R15R16R17R18R19R20R21R22R23R24
+        R26  0  0  0  0  0  0  0  0  0  0  0  0  0  0  0  0
++         0  0  0  0  0  0  0  0  0  0  0  0  0  0  0  0  0
++         0  0  0  0  0  0  0  0  0  0  0  0  0  0  0  0  0
++         0  0  0  0  0  0  0  0  0  0  0  0  0  0  0  0  0
++         0  0  0  0  0  0  0  0  0  0  0  0  0  0  0  0  0
++         0  0  0  0  0  0  0  0  0  0  0  0  0  0  0  0  0
++         0  0  0  0  0  0  0  0  0  0  0  0  0  0  0  0  0
%c M  cc GPS ccc cccc cccc cccc cccc ccccc ccccc ccccc ccccc
%c cc cc ccc ccc cccc cccc cccc cccc ccccc ccccc ccccc ccccc
%f  0.0000000  0.000000000  0.00000000000  0.000000000000000
%f  0.0000000  0.000000000  0.00000000000  0.000000000000000
%i    0    0    0    0      0      0      0      0         0
%i    0    0    0    0      0      0      0      0         0
/*                                                          
/*   RSA / INFORMATION & ANALYSIS CENTER (IAC) OF MCC       
/*   ULTRA-RAPID DETERMINATION                              
/* PCV:IGS14_2000 OL/AL:FES2004  NONE     YN ORB:CoN CLK:CoN
*  2018 06 20  7 45  0.00000000
PC01 -32288.513215  27090.303724    341.316374   -144.098251
PC02   4464.086547  41920.780047    644.660137    132.710163
PC03 -14899.775431  39454.376028    898.304331    274.926152
PC04      0.000000      0.000000      0.000000 999999.999999
PC05  21863.255120  36047.268723    384.674631    354.433375
PC06 -23630.909758  24664.476090 -24647.773284     61.690042
PC07 -16090.200708  37302.653915 -10219.806654    101.122760
PC08  -6977.800580  23117.874096  34671.462387    399.540917
PC09  -8079.862874  25536.854817 -32445.501554    -21.593176
PC10  -4604.251637  41389.639640   5166.128866   -323.533006
PC11  23472.061797  12865.295960   8071.928771   -557.285949
PC12   6238.580569  16764.281990  21494.093021    484.539690
PC13   4854.628184  30991.219909  28298.224291   -384.188043
PC14  12896.917921   9747.334589 -22678.982680    108.593765
PE01  14300.781431 -18442.518372  18211.539838   -372.523677
PE02 -14295.219094  18455.154464 -18202.033073     16.857037
PE03 -25096.986579  14677.994552  -5514.006705    -45.462897
PE04   8843.273294 -19464.579099  20484.279217    -58.712283
PE05 -26695.797224   1273.999987  12734.516214    242.674153
PE07  12678.100226  12818.807000 -23461.189189     12.137405
PE08  -8720.719300  19424.488417 -20545.746506   6560.505283
PE09 -12686.669918 -12618.286871  23592.991257   6758.017371
PE11 -20027.331874 -20714.204234  -6841.967101   1405.712219
PE12  -2298.756999 -19952.570143 -21750.353736   4422.749712
PE14   3721.814274 -20279.661794 -24915.049249   6564.050855
PE18  -8098.329777  13795.878474  17630.855074   6119.370028
PE19  25910.790486 -13793.830840   3804.847693     23.423443
PE24  -8234.109964 -22836.368745 -16945.108280   6643.536300
PE26  25560.122552   9572.386373 -11454.635183   5801.597484
PE30  -4371.533535  29262.929415   -856.024219   5743.651721
PG01 -17768.634023  -5730.457503  18856.761932    -57.996260
PG02  14667.415272  22253.860949   -857.847351     80.729842
PG03 -18326.008687   5468.549576  18384.220631     92.259298
PG04   6065.000570 -23289.919910 -11165.312818     70.958865
PG05   8194.895703  15053.789285 -20340.414921     -5.863059
PG06   4107.614330  23589.316095  11495.848025    394.516600
PG07 -11168.609387  10814.325758 -21259.151058    172.320515
PG08 -24788.057832  -5629.834753  -7919.968576   -105.409412
PG09 -21881.713940   8635.225090 -12370.241703    514.555315
PG10   9952.664625 -23935.223928   5430.755697    188.458029
PG11 -22892.697042  -6166.762976  11247.873611   -733.222380
PG12  16763.831673   -535.359966  20350.595690    326.229982
PG13  18705.964226  12507.015816 -14219.895664    -93.304559
PG14  -4954.040830 -15473.147012  21341.422821    -97.443012
PG15  25899.200300   3035.850290  -6249.138081   -352.302686
PG16  -5667.315965 -15607.188808 -20782.303837     20.777213
PG17  -5916.230652  14269.142798  21976.729498    -86.443175
PG18 -18782.909194 -13795.870497  12441.371886     23.847933
PG19   3162.104402  14862.003384  21468.614973   -426.984846
PG20  14438.744955 -21637.337219  -5344.106481    510.889585
PG21   7491.353658 -15074.439078 -19756.297765   -378.900607
PG22 -16102.239849  -3494.336124  21075.464981   -431.820824
PG23 -26758.784590    571.830382   -998.931688   -215.640265
PG24  19150.445485   8788.317055  16220.630155    -51.444293
PG25  18390.369272 -14726.610332  11844.153538   -603.705293
PG26   1591.064548 -22471.320238 -13975.386436   -109.805296
PG27 -16073.004812 -12103.912822 -17553.665100    365.138194
PG28 -13346.896857  22747.556706   3956.932827    725.090067
PG29  23659.559653  -5309.529301 -10850.569838    429.232310
PG30  -4189.092493  19764.459755 -17145.598315     60.366769
PG31  -4666.718894 -24036.412263   9783.330649    113.344644
PG32   5845.437524 -14891.274409  21229.867349   -490.807064
PJ01 -33123.206931  25922.307811   8012.223492   -212.116638
PR01  21551.367602  -7854.568859 -11167.178047     27.917804
PR02  17664.321057 -16237.499253   8633.731491    315.707430
PR03   2945.220019 -13953.403476  21184.698574    135.485521
PR04 -13786.941739  -3153.762222  21254.287494    265.485617
PR05 -21901.175629   9250.521011   9228.921496    -27.265298
PR07  -2640.373578  13787.734206 -21264.961050    -40.478565
PR08  13262.366372   3615.227363 -21428.554475     22.639140
PR09  -5847.762821  20610.614520 -13778.571498     22.932002
PR10   2179.221326  25223.337264   2691.085579     26.404627
PR11   9397.706163  15019.815593  18340.186659    -31.978109
PR13   5309.401403 -20752.652788  13839.616230    -11.618661
PR14  -2256.562552 -25292.933013  -2515.647320     28.346797
PR15  -7932.619924 -18449.094455 -15663.031947    -11.959563
PR16 -10769.022319   3122.826126 -22940.649880     95.289105
PR17  -8491.096671 -14432.877960 -19225.484343    141.597879
PR18 -20992.439193 -13593.722440  -5178.719820    199.940222
PR19 -21759.861276  -5679.934635  12037.273566    -55.066188
PR20  -9176.916568   6726.845659  22837.627092   -342.255950
PR21   8910.208923  14450.980508  19042.434509     11.007084
PR22  21663.123355  12963.988419   3127.574004    -52.596056
PR23  20243.823540   2766.352014 -15278.407566    160.838320
PR24   8089.573940  -7546.427450 -23011.005270   -167.824882
PR26  -9803.787018   6477.343645  22645.241281 999999.999999
EOF
